{
  "norad_id": 65204,
  "name": "STARLINK-34787",
  "history": [
    {
      "epoch": "2026-03-28T22:53:00.692736",
      "apogee_km": 476.3542844791964,
      "perigee_km": 473.95727679623997,
      "latitude_deg": -53.115662589901824,
      "longitude_deg": 71.93410303979181,
      "semi_major_axis_km": 6853.292780637717,
      "eccentricity": 0.00017488,
      "inclination_deg": 53.1594,
      "raan_deg": 62.9772,
      "arg_perigee_deg": 104.4657,
      "mean_anomaly_deg": 255.6537,
      "mean_motion_rev_day": 15.30219857
    },
    {
      "epoch": "2026-03-29T05:09:13.395168",
      "apogee_km": 475.96408651636557,
      "perigee_km": 474.3823425188539,
      "latitude_deg": 28.812150421924482,
      "longitude_deg": 97.01488352008164,
      "semi_major_axis_km": 6853.310214517609,
      "eccentricity": 0.0001154,
      "inclination_deg": 53.158,
      "raan_deg": 61.7618,
      "arg_perigee_deg": 85.0129,
      "mean_anomaly_deg": 275.1003,
      "mean_motion_rev_day": 15.30214018
    }
  ]
}